GLOBALSTAR M035         
1 25851U 99037A   25220.53092458 -.00000070  00000+0 -24693-3 0  9991
2 25851  51.9961 298.2389 0013622  68.1634  33.3347 11.04539282102042
GLOBALSTAR M032         
1 25852U 99037B   25220.85426598 -.00000068  00000+0 -55171-4 0  9996
2 25852  51.9949 119.0777 0011806 256.3626 103.5859 11.19062274140682
GLOBALSTAR M051         
1 25853U 99037C   25220.82482203 -.00000043  00000+0  70202-3 0  9992
2 25853  51.9783 273.9141 0000332 288.9923  71.0852 11.42204854138404
GLOBALSTAR M030         
1 25854U 99037D   25220.87003503 -.00000042  00000+0  70445-3 0  9998
2 25854  51.9879  76.5572 0003497 128.8855 231.2274 11.55112584156137
GLOBALSTAR M048         
1 25872U 99041A   25220.90947079 -.00000080  00000+0 -26068-3 0  9997
2 25872  51.9333 210.7786 0013671 276.8520  92.5265 11.33858562130969
GLOBALSTAR M026         
1 25873U 99041B   25220.81660390  .00000046  00000+0  40613-2 0  9997
2 25873  52.0021  55.0015 0002064  22.8225 104.4971 11.06847214154310
GLOBALSTAR M043         
1 25874U 99041C   25220.55642458 -.00000068  00000+0  17437-4 0  9999
2 25874  51.9428 321.3504 0013414  43.5985 330.0607 11.25694726128779
GLOBALSTAR M028         
1 25875U 99041D   25220.82298420 -.00000075  00000+0  16119-3 0  9999
2 25875  51.9638  36.1128 0063260 184.9618 175.0622 12.50585670196767
